*******************************************************************************
Ephemeris / WWW_USER Mon Jul 15 19:21:32 2024 Pasadena, USA      / Horizons    
*******************************************************************************
Target body name: (2019 AS11)                     {source: JPL#3}
Center body name: Earth (399)                     {source: DE441}
Center-site name: Gemini South Obs., Cerro Pachon
*******************************************************************************
Start time      : A.D. 2018-Nov-01 23:14:00.0000 UT      
Stop  time      : A.D. 2018-Nov-02 09:38:00.0000 UT      
Step-size       : 1 minutes
*******************************************************************************
Target pole/equ : undefined
Target radii    : undefined                                                    
Center geodetic : 289.2634, -30.2406227, 2.71233  {E-lon(deg),Lat(deg),Alt(km)}
Center cylindric: 289.2634,5517.21435,-3194.81213 {E-lon(deg),Dxy(km),Dz(km)}
Center pole/equ : ITRF93                          {East-longitude positive}
Center radii    : 6378.137, 6378.137, 6356.752 km {Equator_a, b, pole_c}       
Target primary  : Sun
Vis. interferer : MOON (R_eq= 1737.400) km        {source: DE441}
Rel. light bend : Sun                             {source: DE441}
Rel. lght bnd GM: 1.3271E+11 km^3/s^2                                          
Small-body perts: Yes                             {source: SB441-N16}
Atmos refraction: NO (AIRLESS)
RA format       : HMS
Time format     : CAL 
Calendar mode   : Mixed Julian/Gregorian
RTS-only print  : NO       
EOP file        : eop.240715.p241008                                           
EOP coverage    : DATA-BASED 1962-JAN-20 TO 2024-JUL-15. PREDICTS-> 2024-OCT-07
Units conversion: 1 au= 149597870.700 km, c= 299792.458 km/s, 1 day= 86400.0 s 
Table cut-offs 1: Elevation (-90.0deg=NO ),Airmass (>38.000=NO), Daylight (YES)
Table cut-offs 2: Solar elongation (  0.0,180.0=NO ),Local Hour Angle( 0.0=NO )
Table cut-offs 3: RA/DEC angular rate (     0.0=NO )                           
*******************************************************************************
Initial IAU76/J2000 heliocentric ecliptic osculating elements (au, days, deg.):
  EPOCH=  2458497.5 ! 2019-Jan-14.00 (TDB)         Residual RMS= .087899       
   EC= .1148313279028816   QR= .9946661968961306   TP= 2458526.093433633       
   OM= 299.8828960483019   W=  203.050931799211    IN= 7.281527766683049       
  Equivalent ICRF heliocentric cartesian coordinates (au, au/d):
   X=-3.982431103506237E-01  Y= 8.438985356712057E-01  Z= 3.820551439764541E-01
  VX=-1.601846206933958E-02 VY=-6.309373484980013E-03 VZ=-5.215303828559489E-03
Asteroid physical parameters (km, seconds, rotational period in hours):        
   GM= n.a.                RAD= n.a.               ROTPER= n.a.                
   H= 26.8                 G= .150                 B-V= n.a.                   
                           ALBEDO= n.a.            STYP= n.a.                  
*******************************************************************************
 Date__(UT)__HR:MN     R.A._________(ICRF)_________DEC
******************************************************
$$SOE
 2018-Nov-02 09:29 Cm  05 39 32.399821 +61 56 20.17351
 2018-Nov-02 09:30 Cm  05 39 32.504737 +61 56 21.12764
 2018-Nov-02 09:31 Cm  05 39 32.609697 +61 56 22.08125
 2018-Nov-02 09:32 Cm  05 39 32.714702 +61 56 23.03434
 2018-Nov-02 09:33 Cm  05 39 32.819751 +61 56 23.98691
 2018-Nov-02 09:34 Cm  05 39 32.924846 +61 56 24.93896
 2018-Nov-02 09:35 Cm  05 39 33.029986 +61 56 25.89050
 2018-Nov-02 09:36 Cm  05 39 33.135171 +61 56 26.84152
 2018-Nov-02 09:37 Cm  05 39 33.240403 +61 56 27.79202
 2018-Nov-02 09:38 Cm  05 39 33.345682 +61 56 28.74201
